OBJECT_NAME,OBJECT_ID,EPOCH,MEAN_MOTION,ECCENTRICITY,INCLINATION,RA_OF_ASC_NODE,ARG_OF_PERICENTER,MEAN_ANOMALY,EPHEMERIS_TYPE,CLASSIFICATION_TYPE,NORAD_CAT_ID,ELEMENT_SET_NO,REV_AT_EPOCH,BSTAR,MEAN_MOTION_DOT,MEAN_MOTION_DDOT
STARLINK-37662,2026-110P,2026-06-11T16:00:01.998720,15.49220086,.000171,97.2841,359.0542,62.9519,27.8876,0,U,69137,999,477,-.38806E-3,-.21163E-3,0
STARLINK-37658,2026-110Q,2026-06-11T16:00:01.998720,15.49194866,.0000912,97.2842,358.9793,107.3096,166.9838,0,U,69138,999,477,-.45973E-3,-.25019E-3,0
STARLINK-37659,2026-110R,2026-06-11T16:00:01.998720,15.49197476,.0001409,97.2846,358.9625,84.6622,146.7419,0,U,69139,999,477,-.83932E-4,-.4654E-4,0
STARLINK-37653,2026-110S,2026-06-11T16:36:50.483808,15.49206183,.0001138,97.2848,358.9810,110.0479,250.0895,0,U,69140,999,475,.10601E-2,.58028E-3,0
STARLINK-37654,2026-110T,2026-06-11T16:00:01.998720,15.49189875,.0001495,97.2839,359.0585,88.7834,11.6999,0,U,69141,999,477,-.15636E-3,-.8586E-4,0
STARLINK-37655,2026-110U,2026-06-11T16:00:01.998720,15.49123696,.0000988,97.2845,359.1058,58.3996,153.4812,0,U,69142,999,477,-.14848E-4,-.896E-5,0
STARLINK-37636,2026-110V,2026-06-11T16:00:01.998720,15.52643750,.0001331,97.2840,359.1779,89.7957,281.5102,0,U,69143,999,477,-.47383E-1,-.2577028E-1,0
STARLINK-37638,2026-110W,2026-06-11T16:00:01.998720,15.52947298,.0001274,97.2844,359.1831,88.3200,295.7466,0,U,69144,999,477,-.47636E-1,-.2614452E-1,0
STARLINK-37657,2026-110X,2026-06-11T16:00:01.998720,15.49220579,.0001851,97.2842,359.0594,87.1308,12.1061,0,U,69145,999,482,-.70705E-4,-.3938E-4,0
STARLINK-37639,2026-110Y,2026-06-11T16:00:01.998720,15.53744813,.0001369,97.2840,359.1913,75.7868,326.6662,0,U,69146,999,482,-.46026E-1,-.2602289E-1,0
STARLINK-37661,2026-110Z,2026-06-11T16:00:01.998720,15.49172858,.0001704,97.2847,359.0068,88.7311,251.1060,0,U,69147,999,482,-.44429E-3,-.24167E-3,0
STARLINK-37395,2026-111A,2026-06-11T13:56:11.614272,15.80899021,.0001872,53.1579,179.7589,86.8594,273.2643,0,U,69148,999,337,.12764E-2,.259241E-2,0
STARLINK-37346,2026-111B,2026-06-11T16:00:01.998720,15.68039084,.0001269,53.1594,179.4406,60.4387,13.4971,0,U,69149,999,466,-.26305E-1,-.2585703E-1,0
STARLINK-37332,2026-111C,2026-06-11T16:00:01.998720,15.59374866,.0000958,53.1589,179.6049,86.3848,267.2255,0,U,69150,999,466,-.36169E-1,-.25249E-1,0
STARLINK-37297,2026-111D,2026-06-11T13:54:22.345056,15.80992746,.0001133,53.1578,179.7507,74.0387,286.0760,0,U,69151,999,337,.16075E-2,.330851E-2,0
STARLINK-37317,2026-111E,2026-06-11T10:49:26.986656,15.80935647,.0001282,53.1577,180.3711,114.2040,245.9117,0,U,69152,999,335,.93962E-3,.189422E-2,0
STARLINK-37374,2026-111F,2026-06-11T16:00:01.998720,15.54571959,.000134,53.1589,179.7341,92.3449,197.2965,0,U,69153,999,466,-.42678E-1,-.2541683E-1,0
STARLINK-37235,2026-111G,2026-06-11T16:00:01.998720,15.51499836,.0001219,53.1595,179.9611,66.1862,111.6523,0,U,69154,999,466,-.5062E-1,-.267566E-1,0
STARLINK-37329,2026-111H,2026-06-11T12:21:08.125632,15.80932346,.0000948,53.1578,180.0578,92.7826,267.3306,0,U,69155,999,336,.80103E-3,.160815E-2,0
STARLINK-37345,2026-111J,2026-06-11T12:19:02.856000,15.80947339,.0001603,53.1588,180.0459,132.5329,227.5829,0,U,69156,999,336,.99487E-3,.200982E-2,0
STARLINK-37353,2026-111K,2026-06-11T13:49:46.550208,15.80945603,.0001086,53.1579,179.7292,102.2179,257.8966,0,U,69157,999,337,.10353E-2,.209375E-2,0
STARLINK-37363,2026-111L,2026-06-11T12:15:44.993088,15.80960877,.0000981,53.1579,180.0312,85.5288,274.5847,0,U,69158,999,336,.11893E-2,.241689E-2,0
STARLINK-37343,2026-111M,2026-06-11T16:00:01.998720,15.54581062,.000129,53.1589,179.7353,94.9673,193.8215,0,U,69159,999,466,-.42493E-1,-.2532658E-1,0
STARLINK-37328,2026-111N,2026-06-11T12:15:34.034112,15.80942285,.000119,53.1578,180.0293,114.8575,245.2572,0,U,69160,999,336,.83311E-3,.167492E-2,0
STARLINK-37311,2026-111P,2026-06-11T13:57:51.363072,15.78089630,.0001226,53.1584,179.7659,73.0761,287.0394,0,U,69161,999,337,.60147E-3,.105222E-2,0
STARLINK-36286,2026-111Q,2026-06-11T13:56:36.289248,15.78113535,.0000998,53.1582,179.7580,117.3718,242.7405,0,U,69162,999,337,.83256E-3,.14678E-2,0
STARLINK-37196,2026-111R,2026-06-11T12:29:20.616864,15.78116980,.000113,53.1585,180.0938,103.6068,256.5079,0,U,69163,999,336,.10843E-2,.192426E-2,0
STARLINK-36288,2026-111S,2026-06-11T12:28:10.524864,15.78131207,.0000915,53.1583,180.0882,106.6252,253.4870,0,U,69164,999,336,.11724E-2,.208655E-2,0
STARLINK-37445,2026-111T,2026-06-11T12:23:39.276384,15.78106147,.0001187,53.1584,180.0671,78.5702,281.5453,0,U,69165,999,336,.90775E-3,.1603E-2,0
STARLINK-37491,2026-111U,2026-06-11T12:27:02.054592,15.78119853,.000106,53.1581,180.0830,101.3660,258.7481,0,U,69166,999,336,.99152E-3,.175578E-2,0
