STARLINK-37662          
1 69137U 26110P   26162.66668980 -.00021163  00000+0 -38806-3 0  9994
2 69137  97.2841 359.0542 0001710  62.9519  27.8876 15.49220086  4771
STARLINK-37658          
1 69138U 26110Q   26162.66668980 -.00025019  00000+0 -45973-3 0  9992
2 69138  97.2842 358.9793 0000912 107.3096 166.9838 15.49194866  4775
STARLINK-37659          
1 69139U 26110R   26162.66668980 -.00004654  00000+0 -83932-4 0  9993
2 69139  97.2846 358.9625 0001409  84.6622 146.7419 15.49197476  4779
STARLINK-37653          
1 69140U 26110S   26162.69225097  .00058028  00000+0  10601-2 0  9999
2 69140  97.2848 358.9810 0001138 110.0479 250.0895 15.49206183  4753
STARLINK-37654          
1 69141U 26110T   26162.66668980 -.00008586  00000+0 -15636-3 0  9999
2 69141  97.2839 359.0585 0001495  88.7834  11.6999 15.49189875  4773
STARLINK-37655          
1 69142U 26110U   26162.66668980 -.00000896  00000+0 -14848-4 0  9991
2 69142  97.2845 359.1058 0000988  58.3996 153.4812 15.49123696  4773
STARLINK-37636          
1 69143U 26110V   26162.66668980 -.02577028  00000+0 -47383-1 0  9997
2 69143  97.2840 359.1779 0001331  89.7957 281.5102 15.52643750  4774
STARLINK-37638          
1 69144U 26110W   26162.66668980 -.02614452  00000+0 -47636-1 0  9992
2 69144  97.2844 359.1831 0001274  88.3200 295.7466 15.52947298  4774
STARLINK-37657          
1 69145U 26110X   26162.66668980 -.00003938  00000+0 -70705-4 0  9998
2 69145  97.2842 359.0594 0001851  87.1308  12.1061 15.49220579  4825
STARLINK-37639          
1 69146U 26110Y   26162.66668980 -.02602289  00000+0 -46026-1 0  9991
2 69146  97.2840 359.1913 0001369  75.7868 326.6662 15.53744813  4825
STARLINK-37661          
1 69147U 26110Z   26162.66668980 -.00024167  00000+0 -44429-3 0  9990
2 69147  97.2847 359.0068 0001704  88.7311 251.1060 15.49172858  4826
STARLINK-37395          
1 69148U 26111A   26162.58068998  .00259241  00000+0  12764-2 0  9993
2 69148  53.1579 179.7589 0001872  86.8594 273.2643 15.80899021  3377
STARLINK-37346          
1 69149U 26111B   26162.66668980 -.02585703  00000+0 -26305-1 0  9994
2 69149  53.1594 179.4406 0001269  60.4387  13.4971 15.68039084  4660
STARLINK-37332          
1 69150U 26111C   26162.66668980 -.02524900  00000+0 -36169-1 0  9997
2 69150  53.1589 179.6049 0000958  86.3848 267.2255 15.59374866  4668
STARLINK-37297          
1 69151U 26111D   26162.57942529  .00330851  00000+0  16075-2 0  9993
2 69151  53.1578 179.7507 0001133  74.0387 286.0760 15.80992746  3379
STARLINK-37317          
1 69152U 26111E   26162.45100679  .00189422  00000+0  93962-3 0  9990
2 69152  53.1577 180.3711 0001282 114.2040 245.9117 15.80935647  3357
STARLINK-37374          
1 69153U 26111F   26162.66668980 -.02541683  00000+0 -42678-1 0  9999
2 69153  53.1589 179.7341 0001340  92.3449 197.2965 15.54571959  4664
STARLINK-37235          
1 69154U 26111G   26162.66668980 -.02675660  00000+0 -50620-1 0  9999
2 69154  53.1595 179.9611 0001219  66.1862 111.6523 15.51499836  4667
STARLINK-37329          
1 69155U 26111H   26162.51467738  .00160815  00000+0  80103-3 0  9990
2 69155  53.1578 180.0578 0000948  92.7826 267.3306 15.80932346  3361
STARLINK-37345          
1 69156U 26111J   26162.51322750  .00200982  00000+0  99487-3 0  9990
2 69156  53.1588 180.0459 0001603 132.5329 227.5829 15.80947339  3367
STARLINK-37353          
1 69157U 26111K   26162.57623322  .00209375  00000+0  10353-2 0  9995
2 69157  53.1579 179.7292 0001086 102.2179 257.8966 15.80945603  3371
STARLINK-37363          
1 69158U 26111L   26162.51093742  .00241689  00000+0  11893-2 0  9991
2 69158  53.1579 180.0312 0000981  85.5288 274.5847 15.80960877  3360
STARLINK-37343          
1 69159U 26111M   26162.66668980 -.02532658  00000+0 -42493-1 0  9992
2 69159  53.1589 179.7353 0001290  94.9673 193.8215 15.54581062  4660
STARLINK-37328          
1 69160U 26111N   26162.51081058  .00167492  00000+0  83311-3 0  9995
2 69160  53.1578 180.0293 0001190 114.8575 245.2572 15.80942285  3361
STARLINK-37311          
1 69161U 26111P   26162.58184448  .00105222  00000+0  60147-3 0  9995
2 69161  53.1584 179.7659 0001226  73.0761 287.0394 15.78089630  3373
STARLINK-36286          
1 69162U 26111Q   26162.58097557  .00146780  00000+0  83256-3 0  9990
2 69162  53.1582 179.7580 0000998 117.3718 242.7405 15.78113535  3377
STARLINK-37196          
1 69163U 26111R   26162.52037751  .00192426  00000+0  10843-2 0  9994
2 69163  53.1585 180.0938 0001130 103.6068 256.5079 15.78116980  3364
STARLINK-36288          
1 69164U 26111S   26162.51956626  .00208655  00000+0  11724-2 0  9996
2 69164  53.1583 180.0882 0000915 106.6252 253.4870 15.78131207  3363
STARLINK-37445          
1 69165U 26111T   26162.51642681  .00160300  00000+0  90775-3 0  9998
2 69165  53.1584 180.0671 0001187  78.5702 281.5453 15.78106147  3364
STARLINK-37491          
1 69166U 26111U   26162.51877378  .00175578  00000+0  99152-3 0  9993
2 69166  53.1581 180.0830 0001060 101.3660 258.7481 15.78119853  3362
